[{"OBJECT_NAME":"CUBEBUG-2 (LO-74)","OBJECT_ID":"2013-066AA","EPOCH":"2026-03-09T19:57:37.220256","MEAN_MOTION":14.92958446,"ECCENTRICITY":0.00587054,"INCLINATION":97.8812,"RA_OF_ASC_NODE":17.505,"ARG_OF_PERICENTER":358.4894,"MEAN_ANOMALY":1.6138,"EPHEMERIS_TYPE":0,"CLASSIFICATION_TYPE":"U","NORAD_CAT_ID":39440,"ELEMENT_SET_NO":999,"REV_AT_EPOCH":66216,"BSTAR":0.0005932098,"MEAN_MOTION_DOT":6.31e-5,"MEAN_MOTION_DDOT":0},{"OBJECT_NAME":"STARLINK-5599","OBJECT_ID":"2023-028AB","EPOCH":"2026-03-09T19:52:09.580224","MEAN_MOTION":14.98323956,"ECCENTRICITY":0.00030597,"INCLINATION":69.9999,"RA_OF_ASC_NODE":224.1123,"ARG_OF_PERICENTER":269.3112,"MEAN_ANOMALY":90.7696,"EPHEMERIS_TYPE":0,"CLASSIFICATION_TYPE":"U","NORAD_CAT_ID":55766,"ELEMENT_SET_NO":999,"REV_AT_EPOCH":16655,"BSTAR":-0.00012890269,"MEAN_MOTION_DOT":-1.63e-5,"MEAN_MOTION_DDOT":0}]
