CUBEBUG-2 (LO-74)       
1 39440U 13066AA  26068.83168078  .00006310  00000+0  59321-3 0  9991
2 39440  97.8812  17.5050 0058705 358.4894   1.6138 14.92958446662163
STARLINK-5599           
1 55766U 23028AB  26068.82788866 -.00001630  00000+0 -12890-3 0  9993
2 55766  69.9999 224.1123 0003060 269.3112  90.7696 14.98323956166550
